{"type": "FeatureCollection", "features": [ {"type": "Feature", "properties": {"norad_id": 66639, "name": "STARLINK-35908", "group": "last-30-days", "lat": 23.633354531547884, "lon": -28.374300432008358, "alt_km": 415.68324633997236, "timestamp": "2025-12-16T03:53:25.816411+00:00", "meta": {"OBJECT_NAME": "STARLINK-35908", "OBJECT_ID": "2025-271Y", "EPOCH": "2025-12-15T08:00:01.999872", "MEAN_MOTION": 15.49263855, "ECCENTRICITY": 8.658e-05, "INCLINATION": 53.1591, "RA_OF_ASC_NODE": 174.7416, "ARG_OF_PERICENTER": 82.594, "MEAN_ANOMALY": 122.2285, "EPHEMERIS_TYPE": 0, "CLASSIFICATION_TYPE": "U", "NORAD_CAT_ID": 66639, "ELEMENT_SET_NO": 999, "REV_AT_EPOCH": 466, "BSTAR": 0.0012344075, "MEAN_MOTION_DOT": 0.00068701, "MEAN_MOTION_DDOT": 0}, "tle": {"line1": "1 66639U 25271Y   25349.33335648  .00068701  00000+0  12344-2 0  9992", "line2": "2 66639  53.1591 174.7416 0000865  82.5940 122.2285 15.49263855  4669"}}, "geometry": {"type": "Point", "coordinates": [-28.374300432008358, 23.633354531547884]}}, {"type": "Feature", "properties": {"norad_id": 66640, "name": "STARLINK-35921", "group": "last-30-days", "lat": 22.174085934265076, "lon": -27.018480225887902, "alt_km": 415.87621316629065, "timestamp": "2025-12-16T03:53:25.816421+00:00", "meta": {"OBJECT_NAME": "STARLINK-35921", "OBJECT_ID": "2025-271Z", "EPOCH": "2025-12-15T08:00:01.999872", "MEAN_MOTION": 15.49266154, "ECCENTRICITY": 0.00011014, "INCLINATION": 53.1592, "RA_OF_ASC_NODE": 174.7378, "ARG_OF_PERICENTER": 81.4434, "MEAN_ANOMALY": 125.2903, "EPHEMERIS_TYPE": 0, "CLASSIFICATION_TYPE": "U", "NORAD_CAT_ID": 66640, "ELEMENT_SET_NO": 999, "REV_AT_EPOCH": 466, "BSTAR": 0.0012375892, "MEAN_MOTION_DOT": 0.00068886, "MEAN_MOTION_DDOT": 0}, "tle": {"line1": "1 66640U 25271Z   25349.33335648  .00068886  00000+0  12376-2 0  9993", "line2": "2 66640  53.1592 174.7378 0001101  81.4434 125.2903 15.49266154  4664"}}, "geometry": {"type": "Point", "coordinates": [-27.018480225887902, 22.174085934265076]}}, {"type": "Feature", "properties": {"norad_id": 66641, "name": "STARLINK-35923", "group": "last-30-days", "lat": 16.256601520055483, "lon": -21.871399739708142, "alt_km": 416.5175841523469, "timestamp": "2025-12-16T03:53:25.816432+00:00", "meta": {"OBJECT_NAME": "STARLINK-35923", "OBJECT_ID": "2025-271AA", "EPOCH": "2025-12-15T08:00:01.999872", "MEAN_MOTION": 15.49271878, "ECCENTRICITY": 0.00011784, "INCLINATION": 53.1591, "RA_OF_ASC_NODE": 174.7208, "ARG_OF_PERICENTER": 110.7648, "MEAN_ANOMALY": 103.6118, "EPHEMERIS_TYPE": 0, "CLASSIFICATION_TYPE": "U", "NORAD_CAT_ID": 66641, "ELEMENT_SET_NO": 999, "REV_AT_EPOCH": 466, "BSTAR": 0.0012482611, "MEAN_MOTION_DOT": 0.00069504, "MEAN_MOTION_DDOT": 0}, "tle": {"line1": "1 66641U 25271AA  25349.33335648  .00069504  00000+0  12483-2 0  9991", "line2": "2 66641  53.1591 174.7208 0001178 110.7648 103.6118 15.49271878  4660"}}, "geometry": {"type": "Point", "coordinates": [-21.871399739708142, 16.256601520055483]}}, {"type": "Feature", "properties": {"norad_id": 66642, "name": "STARLINK-35926", "group": "last-30-days", "lat": 17.748810524312116, "lon": -23.123529405597374, "alt_km": 416.688685851791, "timestamp": "2025-12-16T03:53:25.816442+00:00", "meta": {"OBJECT_NAME": "STARLINK-35926", "OBJECT_ID": "2025-271AB", "EPOCH": "2025-12-15T08:00:01.999872", "MEAN_MOTION": 15.49268571, "ECCENTRICITY": 6.048e-05, "INCLINATION": 53.159, "RA_OF_ASC_NODE": 174.7257, "ARG_OF_PERICENTER": 89.6538, "MEAN_ANOMALY": 122.8243, "EPHEMERIS_TYPE": 0, "CLASSIFICATION_TYPE": "U", "NORAD_CAT_ID": 66642, "ELEMENT_SET_NO": 999, "REV_AT_EPOCH": 442, "BSTAR": 0.0012268191, "MEAN_MOTION_DOT": 0.00068283, "MEAN_MOTION_DDOT": 0}, "tle": {"line1": "1 66642U 25271AB  25349.33335648  .00068283  00000+0  12268-2 0  9996", "line2": "2 66642  53.1590 174.7257 0000604  89.6538 122.8243 15.49268571  4421"}}, "geometry": {"type": "Point", "coordinates": [-23.123529405597374, 17.748810524312116]}}, {"type": "Feature", "properties": {"norad_id": 66643, "name": "STARLINK-35918", "group": "last-30-days", "lat": 20.704880251538988, "lon": -25.691844608439933, "alt_km": 416.12652119573795, "timestamp": "2025-12-16T03:53:25.816454+00:00", "meta": {"OBJECT_NAME": "STARLINK-35918", "OBJECT_ID": "2025-271AC", "EPOCH": "2025-12-15T08:00:01.999872", "MEAN_MOTION": 15.49270322, "ECCENTRICITY": 0.00011263, "INCLINATION": 53.1591, "RA_OF_ASC_NODE": 174.734, "ARG_OF_PERICENTER": 81.3441, "MEAN_ANOMALY": 127.301, "EPHEMERIS_TYPE": 0, "CLASSIFICATION_TYPE": "U", "NORAD_CAT_ID": 66643, "ELEMENT_SET_NO": 999, "REV_AT_EPOCH": 466, "BSTAR": 0.0012043938, "MEAN_MOTION_DOT": 0.0006702, "MEAN_MOTION_DDOT": 0}, "tle": {"line1": "1 66643U 25271AC  25349.33335648  .00067020  00000+0  12044-2 0  9997", "line2": "2 66643  53.1591 174.7340 0001126  81.3441 127.3010 15.49270322  4663"}}, "geometry": {"type": "Point", "coordinates": [-25.691844608439933, 20.704880251538988]}}, {"type": "Feature", "properties": {"norad_id": 66644, "name": "STARLINK-35938", "group": "last-30-days", "lat": 19.222198763671972, "lon": -24.388224256288122, "alt_km": 416.37596690414284, "timestamp": "2025-12-16T03:53:25.816464+00:00", "meta": {"OBJECT_NAME": "STARLINK-35938", "OBJECT_ID": "2025-271AD", "EPOCH": "2025-12-15T08:00:01.999872", "MEAN_MOTION": 15.49278216, "ECCENTRICITY": 5.253e-05, "INCLINATION": 53.1591, "RA_OF_ASC_NODE": 174.7298, "ARG_OF_PERICENTER": 95.9786, "MEAN_ANOMALY": 114.556, "EPHEMERIS_TYPE": 0, "CLASSIFICATION_TYPE": "U", "NORAD_CAT_ID": 66644, "ELEMENT_SET_NO": 999, "REV_AT_EPOCH": 466, "BSTAR": 0.0013366469, "MEAN_MOTION_DOT": 0.00074522, "MEAN_MOTION_DDOT": 0}, "tle": {"line1": "1 66644U 25271AD  25349.33335648  .00074522  00000+0  13366-2 0  9991", "line2": "2 66644  53.1591 174.7298 0000525  95.9786 114.5560 15.49278216  4669"}}, "geometry": {"type": "Point", "coordinates": [-24.388224256288122, 19.222198763671972]}}, {"type": "Feature", "properties": {"norad_id": 66645, "name": "SHENZHOU-22", "group": "last-30-days", "lat": -36.22206138381246, "lon": -60.113209794452125, "alt_km": 395.3439663816098, "timestamp": "2025-12-16T03:53:25.816475+00:00", "meta": {"OBJECT_NAME": "SHENZHOU-22", "OBJECT_ID": "2025-272A", "EPOCH": "2025-12-15T08:10:40.084608", "MEAN_MOTION": 15.592964, "ECCENTRICITY": 0.0007961, "INCLINATION": 41.4685, "RA_OF_ASC_NODE": 0.9167, "ARG_OF_PERICENTER": 52.8673, "MEAN_ANOMALY": 307.2892, "EPHEMERIS_TYPE": 0, "CLASSIFICATION_TYPE": "U", "NORAD_CAT_ID": 66645, "ELEMENT_SET_NO": 999, "REV_AT_EPOCH": 26357, "BSTAR": 0.00021537809, "MEAN_MOTION_DOT": 0.00017163, "MEAN_MOTION_DDOT": 0}, "tle": {"line1": "1 66645U 25272A   25349.34074172  .00017163  00000+0  21538-3 0  9995", "line2": "2 66645  41.4685   0.9167 0007961  52.8673 307.2892 15.59296400263579"}}, "geometry": {"type": "Point", "coordinates": [-60.113209794452125, -36.22206138381246]}}, {"type": "Feature", "properties": {"norad_id": 66647, "name": "COSMOS 2597 (RODNIK-S 22)", "group": "last-30-days", "lat": -75.06536768636323, "lon": -105.27472500814854, "alt_km": 1499.6071097944423, "timestamp": "2025-12-16T03:53:25.816486+00:00", "meta": {"OBJECT_NAME": "COSMOS 2597 (RODNIK-S 22)", "OBJECT_ID": "2025-273A", "EPOCH": "2025-12-15T07:02:13.545312", "MEAN_MOTION": 12.41951989, "ECCENTRICITY": 0.00077066, "INCLINATION": 82.4989, "RA_OF_ASC_NODE": 284.8633, "ARG_OF_PERICENTER": 280.8513, "MEAN_ANOMALY": 79.1699, "EPHEMERIS_TYPE": 0, "CLASSIFICATION_TYPE": "U", "NORAD_CAT_ID": 66647, "ELEMENT_SET_NO": 999, "REV_AT_EPOCH": 245, "BSTAR": 2.9799839e-05, "MEAN_MOTION_DOT": 1.4e-07, "MEAN_MOTION_DDOT": 0}, "tle": {"line1": "1 66647U 25273A   25349.29321233  .00000014  00000+0  29800-4 0  9993", "line2": "2 66647  82.4989 284.8633 0007706 280.8513  79.1699 12.41951989  2453"}}, "geometry": {"type": "Point", "coordinates": [-105.27472500814854, -75.06536768636323]}}, {"type": "Feature", "properties": {"norad_id": 66648, "name": "COSMOS 2598 (RODNIK-S 23)", "group": "last-30-days", "lat": -25.328172371425403, "lon": -79.25259295224932, "alt_km": 1500.0066564844, "timestamp": "2025-12-16T03:53:25.816496+00:00", "meta": {"OBJECT_NAME": "COSMOS 2598 (RODNIK-S 23)", "OBJECT_ID": "2025-273B", "EPOCH": "2025-12-15T06:46:56.875008", "MEAN_MOTION": 12.432335, "ECCENTRICITY": 0.00080005, "INCLINATION": 82.5028, "RA_OF_ASC_NODE": 284.8674, "ARG_OF_PERICENTER": 230.8391, "MEAN_ANOMALY": 129.1978, "EPHEMERIS_TYPE": 0, "CLASSIFICATION_TYPE": "U", "NORAD_CAT_ID": 66648, "ELEMENT_SET_NO": 999, "REV_AT_EPOCH": 245, "BSTAR": 1.830119e-05, "MEAN_MOTION_DOT": 1.2e-07, "MEAN_MOTION_DDOT": 0}, "tle": {"line1": "1 66648U 25273B   25349.28260272  .00000012  00000+0  18301-4 0  9990", "line2": "2 66648  82.5028 284.8674 0008000 230.8391 129.1978 12.43233500  2451"}}, "geometry": {"type": "Point", "coordinates": [-79.25259295224932, -25.328172371425403]}}, {"type": "Feature", "properties": {"norad_id": 66649, "name": "COSMOS 2599 (RODNIK-S 24)", "group": "last-30-days", "lat": -72.80338605818251, "lon": 129.51977646639253, "alt_km": 1504.2536961268133, "timestamp": "2025-12-16T03:53:25.816509+00:00", "meta": {"OBJECT_NAME": "COSMOS 2599 (RODNIK-S 24)", "OBJECT_ID": "2025-273C", "EPOCH": "2025-12-15T07:10:36.787296", "MEAN_MOTION": 12.41151002, "ECCENTRICITY": 0.00063044, "INCLINATION": 82.5045, "RA_OF_ASC_NODE": 284.881, "ARG_OF_PERICENTER": 272.3923, "MEAN_ANOMALY": 87.6434, "EPHEMERIS_TYPE": 0, "CLASSIFICATION_TYPE": "U", "NORAD_CAT_ID": 66649, "ELEMENT_SET_NO": 999, "REV_AT_EPOCH": 245, "BSTAR": 3.84558e-05, "MEAN_MOTION_DOT": 1.5e-07, "MEAN_MOTION_DDOT": 0}, "tle": {"line1": "1 66649U 25273C   25349.29903689  .00000015  00000+0  38456-4 0  9994", "line2": "2 66649  82.5045 284.8810 0006304 272.3923  87.6434 12.41151002  2459"}}, "geometry": {"type": "Point", "coordinates": [129.51977646639253, -72.80338605818251]}}]}